OBJECT B                
1 51825U 22019B   24159.94456333  .00017768  00000+0  78365-3 0  9993
2 51825  97.4293 231.3998 0012976 269.4747  90.5002 15.21767026125827
